start=new Date('2022-07-04T00:00:00.000Z').valueOf();
sats=[{"OBJECT_TYPE":"PAYLOAD","SITE":"AFETR","PERIOD":"95.591","RCS_SIZE":"LARGE","MEAN_MOTION_DDOT":"0.0000000000000","DECAY_DATE":null,"LAUNCH_DATE":"2020-03-18","PERIAPSIS":"546.251","CLASSIFICATION_TYPE":"U","OBJECT_NAME":"STARLINK-1298","EPHEMERIS_TYPE":"0","OBJECT_ID":"2020-019BF","FILE":"3507292","REF_FRAME":"TEME","TIME_SYSTEM":"UTC","BSTAR":"0.00018459000000","ECCENTRICITY":"0.00013350","RA_OF_ASC_NODE":"53.6465","TLE_LINE2":"2 45413  53.0538  53.6465 0001335  85.5272 274.5870 15.06412269127260","REV_AT_EPOCH":"12726","ELEMENT_SET_NO":"999","MEAN_ANOMALY":"274.5870","COUNTRY_CODE":"US","ARG_OF_PERICENTER":"85.5272","TLE_LINE1":"1 45413U 20019BF  22184.89090687  .00002470  00000-0  18459-3 0  9996","GP_ID":"207354737","MEAN_MOTION_DOT":"0.00002470","CENTER_NAME":"EARTH","NORAD_CAT_ID":"45413","SEMIMAJOR_AXIS":"6925.311","MEAN_ELEMENT_THEORY":"SGP4","APOAPSIS":"548.100","INCLINATION":"53.0538","EPOCH":"2022-07-03T21:22:54.353568","MEAN_MOTION":"15.06412269"},{"PERIAPSIS":"546.105","LAUNCH_DATE":"2020-03-18","RCS_SIZE":"LARGE","PERIOD":"95.592","MEAN_MOTION_DDOT":"0.0000000000000","DECAY_DATE":null,"OBJECT_TYPE":"PAYLOAD","SITE":"AFETR","ECCENTRICITY":"0.00015690","BSTAR":"0.00000719370000","ELEMENT_SET_NO":"999","TLE_LINE2":"2 45414  53.0567  53.7136 0001569  66.8409 293.2745 15.06407097127152","RA_OF_ASC_NODE":"53.7136","REV_AT_EPOCH":"12715","TIME_SYSTEM":"UTC","FILE":"3507292","REF_FRAME":"TEME","CLASSIFICATION_TYPE":"U","OBJECT_NAME":"STARLINK-1309","EPHEMERIS_TYPE":"0","OBJECT_ID":"2020-019BG","GP_ID":"207354475","TLE_LINE1":"1 45414U 20019BG  22184.87616548 -.00000174  00000-0  71937-5 0  9997","COUNTRY_CODE":"US","ARG_OF_PERICENTER":"66.8409","MEAN_ANOMALY":"293.2745","APOAPSIS":"548.278","INCLINATION":"53.0567","EPOCH":"2022-07-03T21:01:40.697472","MEAN_MOTION":"15.06407097","SEMIMAJOR_AXIS":"6925.327","MEAN_ELEMENT_THEORY":"SGP4","CENTER_NAME":"EARTH","NORAD_CAT_ID":"45414","MEAN_MOTION_DOT":"-0.00000174"},{"COUNTRY_CODE":"US","ARG_OF_PERICENTER":"92.1818","MEAN_ANOMALY":"267.9352","TLE_LINE1":"1 45415U 20019BH  22184.90196971 -.00000325  00000-0 -28939-5 0  9998","GP_ID":"207353239","CENTER_NAME":"EARTH","NORAD_CAT_ID":"45415","MEAN_MOTION_DOT":"-0.00000325","APOAPSIS":"548.292","INCLINATION":"53.0565","EPOCH":"2022-07-03T21:38:50.182944","MEAN_MOTION":"15.06405357","SEMIMAJOR_AXIS":"6925.332","MEAN_ELEMENT_THEORY":"SGP4","MEAN_MOTION_DDOT":"0.0000000000000","RCS_SIZE":"LARGE","PERIOD":"95.592","DECAY_DATE":null,"OBJECT_TYPE":"PAYLOAD","SITE":"AFETR","PERIAPSIS":"546.102","LAUNCH_DATE":"2020-03-18","FILE":"3507292","REF_FRAME":"TEME","CLASSIFICATION_TYPE":"U","OBJECT_NAME":"STARLINK-1316","OBJECT_ID":"2020-019BH","EPHEMERIS_TYPE":"0","ECCENTRICITY":"0.00015810","BSTAR":"-0.00000289390000","TLE_LINE2":"2 45415  53.0565  53.6078 0001581  92.1818 267.9352 15.06405357127198","REV_AT_EPOCH":"12719","ELEMENT_SET_NO":"999","RA_OF_ASC_NODE":"53.6078","TIME_SYSTEM":"UTC"},{"MEAN_ANOMALY":"278.0078","COUNTRY_CODE":"US","ARG_OF_PERICENTER":"82.1084","GP_ID":"207353489","TLE_LINE1":"1 45416U 20019BJ  22184.93514611 -.00000186  00000-0  63841-5 0  9992","MEAN_MOTION_DOT":"-0.00000186","CENTER_NAME":"EARTH","NORAD_CAT_ID":"45416","SEMIMAJOR_AXIS":"6925.319","MEAN_ELEMENT_THEORY":"SGP4","APOAPSIS":"548.240","INCLINATION":"53.0549","EPOCH":"2022-07-03T22:26:36.623904","MEAN_MOTION":"15.06409750","OBJECT_TYPE":"PAYLOAD","SITE":"AFETR","RCS_SIZE":"LARGE","MEAN_MOTION_DDOT":"0.0000000000000","PERIOD":"95.592","DECAY_DATE":null,"LAUNCH_DATE":"2020-03-18","PERIAPSIS":"546.127","CLASSIFICATION_TYPE":"U","OBJECT_ID":"2020-019BJ","OBJECT_NAME":"STARLINK-1318","EPHEMERIS_TYPE":"0","FILE":"3507292","REF_FRAME":"TEME","TIME_SYSTEM":"UTC","BSTAR":"0.00000638410000","ECCENTRICITY":"0.00015260","TLE_LINE2":"2 45416  53.0549  53.4636 0001526  82.1084 278.0078 15.06409750127180","RA_OF_ASC_NODE":"53.4636","REV_AT_EPOCH":"12718","ELEMENT_SET_NO":"999"},{"SEMIMAJOR_AXIS":"6925.293","MEAN_ELEMENT_THEORY":"SGP4","EPOCH":"2022-07-03T20:57:41.926752","MEAN_MOTION":"15.06418109","APOAPSIS":"548.402","INCLINATION":"53.0526","MEAN_MOTION_DOT":"0.00002139","NORAD_CAT_ID":"45417","CENTER_NAME":"EARTH","GP_ID":"207354238","TLE_LINE1":"1 45417U 20019BK  22184.87340193  .00002139  00000-0  16239-3 0  9994","MEAN_ANOMALY":"278.6791","COUNTRY_CODE":"US","ARG_OF_PERICENTER":"81.4402","TIME_SYSTEM":"UTC","TLE_LINE2":"2 45417  53.0526  83.7252 0001796  81.4402 278.6791 15.06418109127020","ELEMENT_SET_NO":"999","RA_OF_ASC_NODE":"83.7252","REV_AT_EPOCH":"12702","ECCENTRICITY":"0.00017960","BSTAR":"0.00016239000000","OBJECT_ID":"2020-019BK","OBJECT_NAME":"STARLINK-1286","EPHEMERIS_TYPE":"0","CLASSIFICATION_TYPE":"U","REF_FRAME":"TEME","FILE":"3507292","LAUNCH_DATE":"2020-03-18","PERIAPSIS":"545.914","OBJECT_TYPE":"PAYLOAD","SITE":"AFETR","PERIOD":"95.591","RCS_SIZE":"LARGE","MEAN_MOTION_DDOT":"0.0000000000000","DECAY_DATE":null},{"LAUNCH_DATE":"2020-03-18","PERIAPSIS":"545.425","SITE":"AFETR","OBJECT_TYPE":"PAYLOAD","DECAY_DATE":null,"RCS_SIZE":"LARGE","MEAN_MOTION_DDOT":"0.0000000000000","PERIOD":"95.592","TIME_SYSTEM":"UTC","TLE_LINE2":"2 45418  52.9990 105.1542 0002605  68.6001 291.5265 15.06395001126425","RA_OF_ASC_NODE":"105.1542","REV_AT_EPOCH":"12642","ELEMENT_SET_NO":"999","ECCENTRICITY":"0.00026050","BSTAR":"0.00056553000000","EPHEMERIS_TYPE":"0","OBJECT_NAME":"STARLINK-1299","OBJECT_ID":"2020-019BL","CLASSIFICATION_TYPE":"U","REF_FRAME":"TEME","FILE":"3507292","GP_ID":"207354975","TLE_LINE1":"1 45418U 20019BL  22184.89068172  .00008151  00000-0  56553-3 0  9994","MEAN_ANOMALY":"291.5265","ARG_OF_PERICENTER":"68.6001","COUNTRY_CODE":"US","MEAN_ELEMENT_THEORY":"SGP4","SEMIMAJOR_AXIS":"6925.364","MEAN_MOTION":"15.06395001","EPOCH":"2022-07-03T21:22:34.900608","INCLINATION":"52.9990","APOAPSIS":"549.033","MEAN_MOTION_DOT":"0.00008151","NORAD_CAT_ID":"45418","CENTER_NAME":"EARTH"},{"ARG_OF_PERICENTER":"80.9404","COUNTRY_CODE":"US","MEAN_ANOMALY":"279.1734","TLE_LINE1":"1 45419U 20019BM  22184.86971055  .00000320  00000-0  40356-4 0  9990","GP_ID":"207353739","CENTER_NAME":"EARTH","NORAD_CAT_ID":"45419","MEAN_MOTION_DOT":"0.00000320","INCLINATION":"53.0553","APOAPSIS":"548.087","MEAN_MOTION":"15.06411609","EPOCH":"2022-07-03T20:52:22.991520","MEAN_ELEMENT_THEORY":"SGP4","SEMIMAJOR_AXIS":"6925.313","DECAY_DATE":null,"RCS_SIZE":"LARGE","PERIOD":"95.591","MEAN_MOTION_DDOT":"0.0000000000000","SITE":"AFETR","OBJECT_TYPE":"PAYLOAD","PERIAPSIS":"546.269","LAUNCH_DATE":"2020-03-18","FILE":"3507292","REF_FRAME":"TEME","CLASSIFICATION_TYPE":"U","EPHEMERIS_TYPE":"0","OBJECT_NAME":"STARLINK-1308","OBJECT_ID":"2020-019BM","BSTAR":"0.00004035600000","ECCENTRICITY":"0.00013130","RA_OF_ASC_NODE":"83.7578","TLE_LINE2":"2 45419  53.0553  83.7578 0001313  80.9404 279.1734 15.06411609126776","ELEMENT_SET_NO":"999","REV_AT_EPOCH":"12677","TIME_SYSTEM":"UTC"},{"SITE":"AFETR","OBJECT_TYPE":"PAYLOAD","DECAY_DATE":null,"RCS_SIZE":"LARGE","PERIOD":"95.592","MEAN_MOTION_DDOT":"0.0000000000000","LAUNCH_DATE":"2020-04-22","PERIAPSIS":"546.173","EPHEMERIS_TYPE":"0","OBJECT_ID":"2020-025A","OBJECT_NAME":"STARLINK-1329","CLASSIFICATION_TYPE":"U","REF_FRAME":"TEME","FILE":"3507292","TIME_SYSTEM":"UTC","RA_OF_ASC_NODE":"23.5989","TLE_LINE2":"2 45531  53.0553  23.5989 0001498  77.7507 282.3650 15.06401035122402","REV_AT_EPOCH":"12240","ELEMENT_SET_NO":"999","ECCENTRICITY":"0.00014980","BSTAR":"0.00001810700000","MEAN_ANOMALY":"282.3650","ARG_OF_PERICENTER":"77.7507","COUNTRY_CODE":"US","GP_ID":"207354487","TLE_LINE1":"1 45531U 20025A   22184.90473329 -.00000012  00000-0  18107-4 0  9996","MEAN_MOTION_DOT":"-0.00000012","NORAD_CAT_ID":"45531","CENTER_NAME":"EARTH","MEAN_ELEMENT_THEORY":"SGP4","SEMIMAJOR_AXIS":"6925.345","MEAN_MOTION":"15.06401035","EPOCH":"2022-07-03T21:42:48.956256","INCLINATION":"53.0553","APOAPSIS":"548.248"},{"MEAN_ELEMENT_THEORY":"SGP4","SEMIMAJOR_AXIS":"6925.340","MEAN_MOTION":"15.06402776","EPOCH":"2022-07-03T20:23:12.080832","INCLINATION":"53.0563","APOAPSIS":"548.204","MEAN_MOTION_DOT":"-0.00001022","NORAD_CAT_ID":"45532","CENTER_NAME":"EARTH","TLE_LINE1":"1 45532U 20025B   22184.84944538 -.00001022  00000-0 -49716-4 0  9998","GP_ID":"207353251","MEAN_ANOMALY":"279.6671","ARG_OF_PERICENTER":"80.4481","COUNTRY_CODE":"US","TIME_SYSTEM":"UTC","TLE_LINE2":"2 45532  53.0563  23.8468 0001443  80.4481 279.6671 15.06402776122394","RA_OF_ASC_NODE":"23.8468","REV_AT_EPOCH":"12239","ELEMENT_SET_NO":"999","ECCENTRICITY":"0.00014430","BSTAR":"-0.00004971600000","EPHEMERIS_TYPE":"0","OBJECT_NAME":"STARLINK-1338","OBJECT_ID":"2020-025B","CLASSIFICATION_TYPE":"U","REF_FRAME":"TEME","FILE":"3507292","LAUNCH_DATE":"2020-04-22","PERIAPSIS":"546.206","SITE":"AFETR","OBJECT_TYPE":"PAYLOAD","DECAY_DATE":null,"RCS_SIZE":"LARGE","PERIOD":"95.592","MEAN_MOTION_DDOT":"0.0000000000000"},{"LAUNCH_DATE":"2020-04-22","PERIAPSIS":"384.329","SITE":"AFETR","OBJECT_TYPE":"PAYLOAD","DECAY_DATE":null,"PERIOD":"92.294","RCS_SIZE":"LARGE","MEAN_MOTION_DDOT":"0.0000000000000","TIME_SYSTEM":"UTC","TLE_LINE2":"2 45533  53.0415 330.5761 0003934 160.6295 199.4867 15.60231383123140","RA_OF_ASC_NODE":"330.5761","ELEMENT_SET_NO":"999","REV_AT_EPOCH":"12314","BSTAR":"0.00025403000000","ECCENTRICITY":"0.00039340","OBJECT_NAME":"STARLINK-1339","OBJECT_ID":"2020-025C","EPHEMERIS_TYPE":"0","CLASSIFICATION_TYPE":"U","REF_FRAME":"TEME","FILE":"3507292","GP_ID":"207353501","TLE_LINE1":"1 45533U 20025C   22184.84300480  .00020638  00000-0  25403-3 0  9999","MEAN_ANOMALY":"199.4867","ARG_OF_PERICENTER":"160.6295","COUNTRY_CODE":"US","MEAN_ELEMENT_THEORY":"SGP4","SEMIMAJOR_AXIS":"6765.125","MEAN_MOTION":"15.60231383","EPOCH":"2022-07-03T20:13:55.614720","INCLINATION":"53.0415","APOAPSIS":"389.652","MEAN_MOTION_DOT":"0.00020638","NORAD_CAT_ID":"45533","CENTER_NAME":"EARTH"}];
